     2.100          NAVIGATION                              RINEX VERSION / TYPE
fic2rin                                 10/17/2011 00:06:13 PGM / RUN BY / DATE
                                                            END OF HEADER
20 11 10 16 16  0  0.0  .544786453247D-04  .568434188608D-12  .000000000000D+00
     .630000000000D+02  .698437500000D+02  .490699011012D-08 -.152209066519D+01
     .354088842869D-05  .463954708539D-02  .928342342377D-05  .515358172226D+04
     .576000000000D+05  .126659870148D-06 -.249307953152D+01  .124797224998D-06
     .932199580300D+00  .186750000000D+03  .126257889603D+01 -.815605401810D-08
    -.233224000430D-09  .100000000000D+01  .165800000000D+04  .000000000000D+00
     .240000000000D+01  .000000000000D+00 -.745058059692D-08  .630000000000D+02
     .504060000000D+05  .400000000000D+01
21 11 10 16 16  0  0.0 -.178276561201D-03 -.250111042988D-11  .000000000000D+00
     .470000000000D+02 -.126875000000D+02  .541129683080D-08 -.869180521932D+00
    -.605359673500D-06  .181714390637D-01  .746175646782D-05  .515369848442D+04
     .576000000000D+05  .229105353355D-06  .279150470069D+01  .353902578354D-06
     .931867900198D+00  .218625000000D+03 -.232453415902D+01 -.850892585949D-08
    -.518593030053D-09  .100000000000D+01  .165800000000D+04  .000000000000D+00
     .240000000000D+01  .000000000000D+00 -.116415321827D-07  .470000000000D+02
     .504060000000D+05  .400000000000D+01
22 11 10 16 16  0  0.0  .143906101584D-03 -.341060513165D-12  .000000000000D+00
     .260000000000D+02  .800937500000D+02  .484413034890D-08 -.281873806181D+01
     .417046248913D-05  .587583507877D-02  .974908471107D-05  .515370845604D+04
     .576000000000D+05 -.335276126862D-07 -.243538475473D+01 -.149011611938D-07
     .929585828455D+00  .174187500000D+03 -.197151065326D+01 -.801176229349D-08
    -.133934150324D-09  .100000000000D+01  .165800000000D+04  .000000000000D+00
     .240000000000D+01  .000000000000D+00 -.167638063431D-07  .260000000000D+02
     .504060000000D+05  .400000000000D+01
23 11 10 16 16  0  0.0  .267425552011D-03 -.318323145621D-11  .000000000000D+00
     .800000000000D+01  .604375000000D+02  .449340145392D-08  .163890508490D+01
     .327266752720D-05  .757738947868D-02  .328011810780D-05  .515372118378D+04
     .576000000000D+05 -.726431608200D-07 -.139253535399D+01  .102445483208D-06
     .962511892438D+00  .318000000000D+03 -.304104891116D+01 -.823927177017D-08
    -.750031241812D-11  .100000000000D+01  .165800000000D+04  .000000000000D+00
     .240000000000D+01  .000000000000D+00 -.200234353542D-07  .800000000000D+01
     .504060000000D+05  .400000000000D+01
25 11 10 16 16  0  0.0  .236495397985D-04  .181898940355D-11  .000000000000D+00
     .940000000000D+02 -.600625000000D+02  .428303554848D-08 -.165573075819D+01
    -.306777656078D-05  .102119601797D-02  .993907451630D-05  .515358686829D+04
     .576000000000D+05  .242143869400D-07  .677079037711D+00  .111758708954D-07
     .965836211389D+00  .191468750000D+03  .957491608169D+00 -.783389774186D-08
     .356086260993D-09  .100000000000D+01  .165800000000D+04  .000000000000D+00
     .240000000000D+01  .000000000000D+00  .558793544769D-08  .940000000000D+02
     .504060000000D+05  .400000000000D+01
26 11 10 16 16  0  0.0 -.192695297301D-03 -.130739863380D-10  .000000000000D+00
     .960000000000D+02  .601562500000D+02  .413588656199D-08  .146980535861D+01
     .278092920780D-05  .203996314667D-01  .323355197906D-05  .515365458298D+04
     .576000000000D+05 -.376254320145D-06 -.132454470604D+01 -.255182385445D-06
     .985530039442D+00  .333031250000D+03  .116319337218D+01 -.828355932921D-08
     .964325882329D-10  .100000000000D+01  .165800000000D+04  .000000000000D+00
     .340000000000D+01  .000000000000D+00 -.605359673500D-08  .960000000000D+02
     .504060000000D+05  .400000000000D+01
27 11 10 16 16  0  0.0  .315770506859D-03  .386535248253D-11  .000000000000D+00
     .980000000000D+02 -.885937500000D+02  .404266839337D-08  .242655261211D+01
    -.463426113129D-05  .216987732565D-01  .382214784622D-05  .515361514664D+04
     .576000000000D+05  .279396772385D-06 -.399918453683D+00  .353902578354D-07
     .981790105464D+00  .316406250000D+03 -.119339414559D+01 -.771389274317D-08
    -.306084178206D-09  .100000000000D+01  .165800000000D+04  .000000000000D+00
     .485000000000D+01  .630000000000D+02 -.419095158577D-08  .980000000000D+02
     .504060000000D+05  .400000000000D+01
28 11 10 16 16  0  0.0  .760699622333D-04  .318323145621D-11  .000000000000D+00
     .890000000000D+02 -.507187500000D+02  .392052044827D-08 -.276754870909D+01
    -.278279185295D-05  .172883941559D-01  .104699283838D-04  .515371080589D+04
     .576000000000D+05  .262632966042D-06  .733568336363D+00 -.540167093277D-07
     .976238332817D+00  .179781250000D+03 -.187800749375D+01 -.740280835668D-08
     .449661587353D-09  .100000000000D+01  .165800000000D+04  .000000000000D+00
     .340000000000D+01  .000000000000D+00 -.102445483208D-07  .890000000000D+02
     .504060000000D+05  .400000000000D+01
30 11 10 16 16  0  0.0  .683506950736D-04 -.693489710102D-11  .000000000000D+00
     .720000000000D+02 -.577500000000D+02  .440661212451D-08 -.298395402879D+01
    -.311993062496D-05  .116916067200D-01  .931322574615D-05  .515544026566D+04
     .576000000000D+05  .193715095520D-06  .588206863874D+00  .316649675369D-07
     .957176418080D+00  .194375000000D+03  .158154764530D+01 -.770960685036D-08
     .308584282345D-09  .100000000000D+01  .165800000000D+04  .000000000000D+00
     .685000000000D+01  .000000000000D+00 -.419095158577D-08  .720000000000D+02
     .504060000000D+05  .400000000000D+01
31 11 10 16 16  0  0.0  .156220514327D-03  .522959453519D-11  .000000000000D+00
     .450000000000D+02 -.721562500000D+02  .409124184522D-08  .262268968898D-01
    -.391155481339D-05  .773474934977D-02  .491552054882D-05  .515375543785D+04
     .576000000000D+05 -.558793544769D-08 -.344360068322D+00 -.137835741043D-06
     .980558809742D+00  .291531250000D+03 -.952309671452D+00 -.810355183117D-08
    -.100361323309D-09  .100000000000D+01  .165800000000D+04  .000000000000D+00
     .240000000000D+01  .000000000000D+00 -.130385160446D-07  .450000000000D+02
     .504060000000D+05  .400000000000D+01
32 11 10 16 16  0  0.0 -.346410553902D-03 -.625277607469D-11  .000000000000D+00
     .129000000000D+03  .743750000000D+02  .455661837287D-08  .774349919331D+00
     .361166894436D-05  .121753368294D-01  .883452594280D-05  .515355111694D+04
     .576000000000D+05  .186264514923D-06 -.236533501009D+01 -.178813934326D-06
     .953755499722D+00  .204406250000D+03 -.711862317157D+00 -.812819571483D-08
    -.116076263614D-09  .100000000000D+01  .165800000000D+04  .000000000000D+00
     .340000000000D+01  .000000000000D+00 -.279396772385D-08  .129000000000D+03
     .504060000000D+05  .400000000000D+01
 8 11 10 16 15 59 44.0  .353902578354D-07  .000000000000D+00  .000000000000D+00
     .250000000000D+02 -.807187500000D+02  .372372653673D-08 -.481321062897D+00
    -.416301190853D-05  .121405501850D-01  .571832060814D-05  .515374180984D+04
     .575840000000D+05  .184401869774D-06 -.267779556013D+00 -.111758708954D-07
     .997364048993D+00  .283593750000D+03 -.301825118641D+01 -.788639992878D-08
    -.842892252703D-10  .100000000000D+01  .165800000000D+04  .000000000000D+00
     .240000000000D+01  .000000000000D+00 -.419095158577D-08  .250000000000D+02
     .516360000000D+05  .400000000000D+01
 3 11 10 16 15 59 44.0  .782133080065D-03  .511590769747D-11  .000000000000D+00
     .600000000000D+01  .134375000000D+01  .557951812361D-08  .169911949085D+01
    -.122934579849D-06  .148849731777D-01  .678189098835D-05  .515367724609D+04
     .575840000000D+05 -.305473804474D-06  .160640853366D+01 -.327825546265D-06
     .929260276518D+00  .234625000000D+03  .114664630724D+01 -.847749597888D-08
     .373229832235D-09  .100000000000D+01  .165800000000D+04  .000000000000D+00
     .240000000000D+01  .000000000000D+00 -.465661287308D-08  .600000000000D+01
     .519360000000D+05  .400000000000D+01
 5 11 10 16 15 59 44.0 -.232511665672D-03 -.511590769747D-11  .000000000000D+00
     .150000000000D+02  .912187500000D+02  .440375486264D-08 -.273460220229D+01
     .465847551823D-05  .251295522321D-02  .100005418062D-04  .515378283501D+04
     .575840000000D+05  .186264514923D-08 -.245432923372D+01 -.167638063431D-07
     .953108825563D+00  .183875000000D+03  .170797189634D+00 -.791354391658D-08
    -.153220667970D-09  .100000000000D+01  .165800000000D+04  .000000000000D+00
     .240000000000D+01  .000000000000D+00 -.102445483208D-07  .150000000000D+02
     .522660000000D+05  .400000000000D+01
26 11 10 16 15 59 44.0 -.192696228623D-03 -.130739863380D-10  .000000000000D+00
     .800000000000D+01  .601562500000D+02  .413624371972D-08  .146747159173D+01
     .278092920780D-05  .203996326309D-01  .323355197906D-05  .515365457726D+04
     .575840000000D+05 -.376254320145D-06 -.132454458755D+01 -.255182385445D-06
     .985530036516D+00  .333031250000D+03  .116319342338D+01 -.828355932921D-08
     .964325882329D-10  .100000000000D+01  .165800000000D+04  .000000000000D+00
     .240000000000D+01  .000000000000D+00 -.605359673500D-08  .800000000000D+01
     .541860000000D+05  .400000000000D+01
27 11 10 16 15 59 44.0  .315762590617D-03  .375166564481D-11  .000000000000D+00
     .100000000000D+01 -.885937500000D+02  .404266839337D-08  .242421831127D+01
    -.463426113129D-05  .216987722088D-01  .382214784622D-05  .515361516953D+04
     .575840000000D+05  .279396772385D-06 -.399918345427D+00  .353902578354D-07
     .981790102539D+00  .316406250000D+03 -.119339387202D+01 -.771389274317D-08
    -.306084178206D-09  .100000000000D+01  .165800000000D+04  .000000000000D+00
     .240000000000D+01  .630000000000D+02 -.419095158577D-08  .100000000000D+01
     .559860000000D+05  .400000000000D+01
